{
  "type": "FeatureCollection",
  "features": [
    {
      "type": "Feature",
      "properties": {
        "norad_id": 30436,
        "name": "FENGYUN 1C DEB",
        "group": "fengyun-1c-debris",
        "lat": -65.12650318923001,
        "lon": 44.88711509259902,
        "alt_km": 860.894757309251,
        "timestamp": "2025-12-15T15:53:20.128326+00:00",
        "meta_object_name": "FENGYUN 1C DEB",
        "meta_object_id": "1999-025AEX",
        "meta_epoch": "2025-12-14T17:05:56.399712",
        "meta_mean_motion": 14.22309112,
        "meta_eccentricity": 0.00975042,
        "meta_inclination": 98.4265,
        "meta_ra_of_asc_node": 242.6259,
        "meta_arg_of_pericenter": 127.7274,
        "meta_mean_anomaly": 298.3856,
        "meta_ephemeris_type": 0,
        "meta_classification_type": "U",
        "meta_norad_cat_id": 30436,
        "meta_element_set_no": 999,
        "meta_rev_at_epoch": 96465,
        "meta_bstar": 0.0018103209,
        "meta_mean_motion_dot": 4.185e-05,
        "meta_mean_motion_ddot": 0,
        "tle_line1": "1 30436U 99025AEX 25348.71245833  .00004185  00000+0  18103-2 0  9998",
        "tle_line2": "2 30436  98.4265 242.6259 0097504 127.7274 298.3856 14.22309112964653"
      },
      "geometry": {
        "type": "Point",
        "coordinates": [
          44.88711509259902,
          -65.12650318923001
        ]
      }
    },
    {
      "type": "Feature",
      "properties": {
        "norad_id": 30437,
        "name": "FENGYUN 1C DEB",
        "group": "fengyun-1c-debris",
        "lat": -57.09819069045211,
        "lon": 23.843242821368012,
        "alt_km": 632.5812602281649,
        "timestamp": "2025-12-15T15:53:20.128335+00:00",
        "meta_object_name": "FENGYUN 1C DEB",
        "meta_object_id": "1999-025AEY",
        "meta_epoch": "2025-12-14T19:58:37.821216",
        "meta_mean_motion": 14.88150219,
        "meta_eccentricity": 0.00358044,
        "meta_inclination": 98.9221,
        "meta_ra_of_asc_node": 8.8575,
        "meta_arg_of_pericenter": 95.7548,
        "meta_mean_anomaly": 84.1654,
        "meta_ephemeris_type": 0,
        "meta_classification_type": "U",
        "meta_norad_cat_id": 30437,
        "meta_element_set_no": 999,
        "meta_rev_at_epoch": 99218,
        "meta_bstar": 0.0018998945,
        "meta_mean_motion_dot": 0.0001768,
        "meta_mean_motion_ddot": 0,
        "tle_line1": "1 30437U 99025AEY 25348.83238219  .00017680  00000+0  18999-2 0  9999",
        "tle_line2": "2 30437  98.9221   8.8575 0035804  95.7548  84.1654 14.88150219992187"
      },
      "geometry": {
        "type": "Point",
        "coordinates": [
          23.843242821368012,
          -57.09819069045211
        ]
      }
    },
    {
      "type": "Feature",
      "properties": {
        "norad_id": 30438,
        "name": "FENGYUN 1C DEB",
        "group": "fengyun-1c-debris",
        "lat": -5.434412868064677,
        "lon": -174.31159472606566,
        "alt_km": 827.056738274191,
        "timestamp": "2025-12-15T15:53:20.128345+00:00",
        "meta_object_name": "FENGYUN 1C DEB",
        "meta_object_id": "1999-025AEZ",
        "meta_epoch": "2025-12-13T12:58:40.522656",
        "meta_mean_motion": 13.92102764,
        "meta_eccentricity": 0.01347489,
        "meta_inclination": 98.7504,
        "meta_ra_of_asc_node": 4.5249,
        "meta_arg_of_pericenter": 184.6119,
        "meta_mean_anomaly": 175.381,
        "meta_ephemeris_type": 0,
        "meta_classification_type": "U",
        "meta_norad_cat_id": 30438,
        "meta_element_set_no": 999,
        "meta_rev_at_epoch": 95317,
        "meta_bstar": 0.0017802424,
        "meta_mean_motion_dot": 2.412e-05,
        "meta_mean_motion_ddot": 0,
        "tle_line1": "1 30438U 99025AEZ 25347.54074679  .00002412  00000+0  17802-2 0  9994",
        "tle_line2": "2 30438  98.7504   4.5249 0134748 184.6119 175.3810 13.92102764953179"
      },
      "geometry": {
        "type": "Point",
        "coordinates": [
          -174.31159472606566,
          -5.434412868064677
        ]
      }
    },
    {
      "type": "Feature",
      "properties": {
        "norad_id": 30439,
        "name": "FENGYUN 1C DEB",
        "group": "fengyun-1c-debris",
        "lat": -69.22188261685521,
        "lon": 25.240230448601444,
        "alt_km": 848.9264067341901,
        "timestamp": "2025-12-15T15:53:20.128355+00:00",
        "meta_object_name": "FENGYUN 1C DEB",
        "meta_object_id": "1999-025AFA",
        "meta_epoch": "2025-12-14T18:53:58.399008",
        "meta_mean_motion": 14.08843778,
        "meta_eccentricity": 0.00386568,
        "meta_inclination": 98.7503,
        "meta_ra_of_asc_node": 0.4426,
        "meta_arg_of_pericenter": 330.9527,
        "meta_mean_anomaly": 205.1439,
        "meta_ephemeris_type": 0,
        "meta_classification_type": "U",
        "meta_norad_cat_id": 30439,
        "meta_element_set_no": 999,
        "meta_rev_at_epoch": 96820,
        "meta_bstar": 0.00061745965,
        "meta_mean_motion_dot": 1.031e-05,
        "meta_mean_motion_ddot": 0,
        "tle_line1": "1 30439U 99025AFA 25348.78748147  .00001031  00000+0  61746-3 0  9993",
        "tle_line2": "2 30439  98.7503   0.4426 0038656 330.9527 205.1439 14.08843778968205"
      },
      "geometry": {
        "type": "Point",
        "coordinates": [
          25.240230448601444,
          -69.22188261685521
        ]
      }
    },
    {
      "type": "Feature",
      "properties": {
        "norad_id": 30441,
        "name": "FENGYUN 1C DEB",
        "group": "fengyun-1c-debris",
        "lat": -26.943126501160506,
        "lon": 83.60715991505432,
        "alt_km": 958.501538169754,
        "timestamp": "2025-12-15T15:53:20.128364+00:00",
        "meta_object_name": "FENGYUN 1C DEB",
        "meta_object_id": "1999-025AFC",
        "meta_epoch": "2025-12-14T19:06:20.601792",
        "meta_mean_motion": 13.77681383,
        "meta_eccentricity": 0.01838977,
        "meta_inclination": 99.1348,
        "meta_ra_of_asc_node": 78.0832,
        "meta_arg_of_pericenter": 252.2195,
        "meta_mean_anomaly": 105.8816,
        "meta_ephemeris_type": 0,
        "meta_classification_type": "U",
        "meta_norad_cat_id": 30441,
        "meta_element_set_no": 999,
        "meta_rev_at_epoch": 94898,
        "meta_bstar": 0.00068343292,
        "meta_mean_motion_dot": 7.3e-06,
        "meta_mean_motion_ddot": 0,
        "tle_line1": "1 30441U 99025AFC 25348.79607178  .00000730  00000+0  68343-3 0  9990",
        "tle_line2": "2 30441  99.1348  78.0832 0183897 252.2195 105.8816 13.77681383948982"
      },
      "geometry": {
        "type": "Point",
        "coordinates": [
          83.60715991505432,
          -26.943126501160506
        ]
      }
    },
    {
      "type": "Feature",
      "properties": {
        "norad_id": 30442,
        "name": "FENGYUN 1C DEB",
        "group": "fengyun-1c-debris",
        "lat": -14.023476778729519,
        "lon": -98.92991441119695,
        "alt_km": 797.059565280676,
        "timestamp": "2025-12-15T15:53:20.128372+00:00",
        "meta_object_name": "FENGYUN 1C DEB",
        "meta_object_id": "1999-025AFD",
        "meta_epoch": "2025-12-14T05:21:36.475776",
        "meta_mean_motion": 14.28631974,
        "meta_eccentricity": 0.00549472,
        "meta_inclination": 98.8662,
        "meta_ra_of_asc_node": 81.8428,
        "meta_arg_of_pericenter": 283.1241,
        "meta_mean_anomaly": 76.3812,
        "meta_ephemeris_type": 0,
        "meta_classification_type": "U",
        "meta_norad_cat_id": 30442,
        "meta_element_set_no": 999,
        "meta_rev_at_epoch": 97183,
        "meta_bstar": 0.0023299932,
        "meta_mean_motion_dot": 5.906e-05,
        "meta_mean_motion_ddot": 0,
        "tle_line1": "1 30442U 99025AFD 25348.22333884  .00005906  00000+0  23300-2 0  9992",
        "tle_line2": "2 30442  98.8662  81.8428 0054947 283.1241  76.3812 14.28631974971835"
      },
      "geometry": {
        "type": "Point",
        "coordinates": [
          -98.92991441119695,
          -14.023476778729519
        ]
      }
    },
    {
      "type": "Feature",
      "properties": {
        "norad_id": 30443,
        "name": "FENGYUN 1C DEB",
        "group": "fengyun-1c-debris",
        "lat": 80.39952468986252,
        "lon": -130.1916106018754,
        "alt_km": 770.023709545264,
        "timestamp": "2025-12-15T15:53:20.128381+00:00",
        "meta_object_name": "FENGYUN 1C DEB",
        "meta_object_id": "1999-025AFE",
        "meta_epoch": "2025-12-14T14:25:12.863712",
        "meta_mean_motion": 14.36828387,
        "meta_eccentricity": 0.00275952,
        "meta_inclination": 98.8475,
        "meta_ra_of_asc_node": 295.7688,
        "meta_arg_of_pericenter": 333.7272,
        "meta_mean_anomaly": 26.2512,
        "meta_ephemeris_type": 0,
        "meta_classification_type": "U",
        "meta_norad_cat_id": 30443,
        "meta_element_set_no": 999,
        "meta_rev_at_epoch": 97460,
        "meta_bstar": 0.0020422153,
        "meta_mean_motion_dot": 6.017e-05,
        "meta_mean_motion_ddot": 0,
        "tle_line1": "1 30443U 99025AFE 25348.60084333  .00006017  00000+0  20422-2 0  9993",
        "tle_line2": "2 30443  98.8475 295.7688 0027595 333.7272  26.2512 14.36828387974601"
      },
      "geometry": {
        "type": "Point",
        "coordinates": [
          -130.1916106018754,
          80.39952468986252
        ]
      }
    }
  ]
}